OBJECT_NAME,OBJECT_ID,EPOCH,MEAN_MOTION,ECCENTRICITY,INCLINATION,RA_OF_ASC_NODE,ARG_OF_PERICENTER,MEAN_ANOMALY,EPHEMERIS_TYPE,CLASSIFICATION_TYPE,NORAD_CAT_ID,ELEMENT_SET_NO,REV_AT_EPOCH,BSTAR,MEAN_MOTION_DOT,MEAN_MOTION_DDOT
STARLINK-5791,2023-090AX,2026-07-09T15:01:48.338688,15.27592442,.0001528,42.9995,294.5574,243.9801,116.0893,0,U,57146,999,16900,.69165E-4,.1642E-4,0
STARLINK-5765,2023-090AY,2026-07-09T07:57:18.202752,15.27596830,.0000824,43.0016,296.6449,271.4913,88.5844,0,U,57147,999,16914,.80202118E-4,.1947E-4,0
STARLINK-5788,2023-090AZ,2026-07-09T20:00:01.999008,15.27587484,.0001507,43.0019,293.8654,274.2304,307.8266,0,U,57148,999,589,.73877E-3,.20127E-3,0
STARLINK-5778,2023-090BA,2026-07-09T12:57:05.449824,15.27585439,.0001019,42.9996,280.6426,263.7977,96.2759,0,U,57149,999,16934,.18653E-4,.251E-5,0
STARLINK-5780,2023-090BB,2026-07-09T15:35:34.105056,15.27578678,.0001741,43.0010,301.5589,274.2594,85.8058,0,U,57150,999,16911,.32031E-4,.619E-5,0
STARLINK-5776,2023-090BC,2026-07-09T13:53:36.928896,15.27576753,.0000822,43.0013,295.0650,288.5613,71.5149,0,U,57151,999,16918,-.46775E-4,-.1549E-4,0
STARLINK-6164,2023-090BD,2026-07-09T07:16:36.023808,15.27579659,.00015606,43.0028,296.4373,274.8031,85.2642,0,U,57152,999,16914,.37178821E-4,.761E-5,0
STARLINK-5879,2023-090BE,2026-07-09T07:51:46.440576,15.27578121,.00022444,43.0040,285.3137,283.5405,76.5197,0,U,57153,999,16877,.41762833E-4,.887E-5,0
STARLINK-6106,2023-090BF,2026-07-09T18:47:09.085056,15.27580263,.0001164,43.0024,294.0141,270.2799,89.7920,0,U,57154,999,16921,.35278E-4,.709E-5,0
STARLINK-6108,2023-090BG,2026-07-09T06:39:47.206080,15.27612997,.00012179,43.0024,297.1010,259.3055,100.7659,0,U,57155,999,16913,-.24244995E-3,-.6934E-4,0
STARLINK-6137,2023-090BH,2026-07-09T20:00:01.999008,15.54306317,.0001825,43.0155,291.2818,284.4443,290.4800,0,U,57156,999,548,.1239E-1,.903557E-2,0
STARLINK-5525,2023-094A,2026-07-09T00:37:09.069888,15.27577458,.0001606,43.0046,65.3648,270.6615,89.4053,0,U,57218,999,16567,.15014315E-4,.151E-5,0
STARLINK-5520,2023-094B,2026-07-09T00:42:00.373536,15.27590361,.00008038,43.0036,68.7938,256.6492,103.4270,0,U,57219,999,16563,.19421424E-3,.5088E-4,0
STARLINK-5880,2023-094C,2026-07-09T00:51:16.517376,15.27569037,.00010125,43.0043,68.8436,265.8271,94.2465,0,U,57220,999,16563,.43950704E-4,.947E-5,0
STARLINK-5870,2023-094E,2026-07-09T00:16:49.580544,15.27572818,.00010836,43.0036,65.2544,282.1550,77.9180,0,U,57222,999,16630,.52567709E-4,.1184E-4,0
STARLINK-5519,2023-094F,2026-07-09T00:25:21.791712,15.27579450,.00012421,43.0021,68.7134,266.1988,93.8721,0,U,57223,999,16563,.46777733E-4,.1025E-4,0
STARLINK-5983,2023-094G,2026-07-09T00:22:22.910880,15.27569235,.00008842,43.0037,65.2823,275.6756,84.3995,0,U,57224,999,16567,.45087424E-4,.979E-5,0
STARLINK-6294,2023-094H,2026-07-08T22:26:13.082496,15.27583682,.00015687,43.0024,66.3934,258.3660,101.7016,0,U,57225,999,16565,.33826242E-4,.669E-5,0
STARLINK-6350,2023-094J,2026-07-08T22:05:48.000480,15.27614273,.00014155,43.0052,66.2889,266.7840,93.2850,0,U,57226,999,16565,.19109865E-3,.5005E-4,0
STARLINK-5996,2023-094K,2026-07-09T00:30:51.391296,15.27617241,.00006405,43.0052,68.7320,240.1684,119.9104,0,U,57227,999,16563,.24420853E-3,.6472E-4,0
STARLINK-6230,2023-094L,2026-07-08T22:27:51.778080,15.27577905,.00013384,43.0023,65.5464,260.6507,99.4193,0,U,57228,999,16566,.36363673E-4,.739E-5,0
STARLINK-6233,2023-094M,2026-07-08T22:11:25.083168,15.27572786,.00017114,43.0046,66.3222,282.6335,77.4325,0,U,57229,999,16565,.50585638E-4,.113E-4,0
STARLINK-6250,2023-094N,2026-07-09T01:23:25.968480,15.27584118,.00017185,43.0039,65.6010,261.3462,98.7195,0,U,57230,999,16567,.55105963E-4,.1255E-4,0
STARLINK-5840,2023-094P,2026-07-09T01:08:38.069376,15.27571432,.00011262,43.0059,65.5211,275.6088,84.4635,0,U,57231,999,16567,.706415E-4,.1682E-4,0
STARLINK-5872,2023-094Q,2026-07-09T01:01:14.036448,15.27582679,.00012867,43.0068,65.4761,273.1558,86.9146,0,U,57232,999,16633,.3026935E-4,.571E-5,0
STARLINK-5866,2023-094R,2026-07-09T00:51:57.394080,15.27578114,.00016662,43.0053,65.4358,267.4161,92.6500,0,U,57233,999,16567,-.1108081E-5,-.293E-5,0
STARLINK-6368,2023-094S,2026-07-09T00:14:58.412256,15.27574269,.00011482,43.0027,65.2335,265.3369,94.7351,0,U,57234,999,16567,.35863385E-4,.725E-5,0
STARLINK-6360,2023-094T,2026-07-09T00:46:24.258144,15.27555423,.00030075,43.0059,65.4064,253.2257,106.8265,0,U,57235,999,16567,.41176984E-4,.87E-5,0
STARLINK-6315,2023-094U,2026-07-09T00:15:10.678464,15.27577876,.00010302,43.0071,54.8093,263.6689,96.4046,0,U,57236,999,16579,.96733894E-4,.24E-4,0
STARLINK-6365,2023-094V,2026-07-09T00:33:28.817280,15.27572178,.00011228,43.0033,65.3333,263.9207,96.1516,0,U,57237,999,16567,.47442997E-4,.1043E-4,0
