STARLINK-5791           
1 57146U 23090AX  26190.62625392  .00001642  00000+0  69165-4 0  9993
2 57146  42.9995 294.5574 0001528 243.9801 116.0893 15.27592442169007
STARLINK-5765           
1 57147U 23090AY  26190.33146068  .00001947  00000+0  80202-4 0  9993
2 57147  43.0016 296.6449 0000824 271.4913  88.5844 15.27596830169145
STARLINK-5788           
1 57148U 23090AZ  26190.83335647  .00020127  00000+0  73877-3 0  9992
2 57148  43.0019 293.8654 0001507 274.2304 307.8266 15.27587484  5891
STARLINK-5778           
1 57149U 23090BA  26190.53964641  .00000251  00000+0  18653-4 0  9990
2 57149  42.9996 280.6426 0001019 263.7977  96.2759 15.27585439169347
STARLINK-5780           
1 57150U 23090BB  26190.64970029  .00000619  00000+0  32031-4 0  9995
2 57150  43.0010 301.5589 0001741 274.2594  85.8058 15.27578678169113
STARLINK-5776           
1 57151U 23090BC  26190.57889964 -.00001549  00000+0 -46775-4 0  9990
2 57151  43.0013 295.0650 0000822 288.5613  71.5149 15.27576753169184
STARLINK-6164           
1 57152U 23090BD  26190.30319472  .00000761  00000+0  37179-4 0  9995
2 57152  43.0028 296.4373 0001560 274.8031  85.2642 15.27579659169144
STARLINK-5879           
1 57153U 23090BE  26190.32762084  .00000887  00000+0  41763-4 0  9992
2 57153  43.0040 285.3137 0002244 283.5405  76.5197 15.27578121168775
STARLINK-6106           
1 57154U 23090BF  26190.78274404  .00000709  00000+0  35278-4 0  9994
2 57154  43.0024 294.0141 0001164 270.2799  89.7920 15.27580263169219
STARLINK-6108           
1 57155U 23090BG  26190.27762970 -.00006934  00000+0 -24245-3 0  9998
2 57155  43.0024 297.1010 0001217 259.3055 100.7659 15.27612997169135
STARLINK-6137           
1 57156U 23090BH  26190.83335647  .00903557  00000+0  12390-1 0  9999
2 57156  43.0155 291.2818 0001825 284.4443 290.4800 15.54306317  5485
STARLINK-5525           
1 57218U 23094A   26190.02579942  .00000151  00000+0  15014-4 0  9998
2 57218  43.0046  65.3648 0001606 270.6615  89.4053 15.27577458165679
STARLINK-5520           
1 57219U 23094B   26190.02917099  .00005088  00000+0  19421-3 0  9997
2 57219  43.0036  68.7938 0000803 256.6492 103.4270 15.27590361165635
STARLINK-5880           
1 57220U 23094C   26190.03560784  .00000947  00000+0  43951-4 0  9990
2 57220  43.0043  68.8436 0001012 265.8271  94.2465 15.27569037165638
STARLINK-5870           
1 57222U 23094E   26190.01168496  .00001184  00000+0  52568-4 0  9992
2 57222  43.0036  65.2544 0001083 282.1550  77.9180 15.27572818166301
STARLINK-5519           
1 57223U 23094F   26190.01761333  .00001025  00000+0  46778-4 0  9992
2 57223  43.0021  68.7134 0001242 266.1988  93.8721 15.27579450165635
STARLINK-5983           
1 57224U 23094G   26190.01554295  .00000979  00000+0  45087-4 0  9999
2 57224  43.0037  65.2823 0000884 275.6756  84.3995 15.27569235165671
STARLINK-6294           
1 57225U 23094H   26189.93487364  .00000669  00000+0  33826-4 0  9995
2 57225  43.0024  66.3934 0001568 258.3660 101.7016 15.27583682165653
STARLINK-6350           
1 57226U 23094J   26189.92069445  .00005005  00000+0  19110-3 0  9999
2 57226  43.0052  66.2889 0001415 266.7840  93.2850 15.27614273165659
STARLINK-5996           
1 57227U 23094K   26190.02142814  .00006472  00000+0  24421-3 0  9995
2 57227  43.0052  68.7320 0000640 240.1684 119.9104 15.27617241165632
STARLINK-6230           
1 57228U 23094L   26189.93601595  .00000739  00000+0  36364-4 0  9990
2 57228  43.0023  65.5464 0001338 260.6507  99.4193 15.27577905165666
STARLINK-6233           
1 57229U 23094M   26189.92459587  .00001130  00000+0  50586-4 0  9990
2 57229  43.0046  66.3222 0001711 282.6335  77.4325 15.27572786165655
STARLINK-6250           
1 57230U 23094N   26190.05793945  .00001255  00000+0  55106-4 0  9998
2 57230  43.0039  65.6010 0001718 261.3462  98.7195 15.27584118165673
STARLINK-5840           
1 57231U 23094P   26190.04766284  .00001682  00000+0  70641-4 0  9999
2 57231  43.0059  65.5211 0001126 275.6088  84.4635 15.27571432165679
STARLINK-5872           
1 57232U 23094Q   26190.04252357  .00000571  00000+0  30269-4 0  9999
2 57232  43.0068  65.4761 0001286 273.1558  86.9146 15.27582679166334
STARLINK-5866           
1 57233U 23094R   26190.03608095 -.00000293  00000+0 -11081-5 0  9998
2 57233  43.0053  65.4358 0001666 267.4161  92.6500 15.27578114165672
STARLINK-6368           
1 57234U 23094S   26190.01039829  .00000725  00000+0  35863-4 0  9991
2 57234  43.0027  65.2335 0001148 265.3369  94.7351 15.27574269165673
STARLINK-6360           
1 57235U 23094T   26190.03222521  .00000870  00000+0  41177-4 0  9993
2 57235  43.0059  65.4064 0003007 253.2257 106.8265 15.27555423165678
STARLINK-6315           
1 57236U 23094U   26190.01054026  .00002400  00000+0  96734-4 0  9995
2 57236  43.0071  54.8093 0001030 263.6689  96.4046 15.27577876165795
STARLINK-6365           
1 57237U 23094V   26190.02325020  .00001043  00000+0  47443-4 0  9997
2 57237  43.0033  65.3333 0001122 263.9207  96.1516 15.27572178165675
